[{
    "OBJECT_NAME": "GORIZONT 32",
    "OBJECT_ID": "1996-034A",
    "EPOCH": "2024-09-22T03:09:42.723072",
    "MEAN_MOTION": 1.00209761,
    "ECCENTRICITY": 0.0006034,
    "INCLINATION": 14.4273,
    "RA_OF_ASC_NODE": 359.7202,
    "ARG_OF_PERICENTER": 353.1062,
    "MEAN_ANOMALY": 40.5023,
    "EPHEMERIS_TYPE": 0,
    "CLASSIFICATION_TYPE": "U",
    "NORAD_CAT_ID": 23880,
    "ELEMENT_SET_NO": 999,
    "REV_AT_EPOCH": 10370,
    "BSTAR": 0,
    "MEAN_MOTION_DOT": -1.65e-6,
    "MEAN_MOTION_DDOT": 0
},{
    "OBJECT_NAME": "TURKSAT 1C",
    "OBJECT_ID": "1996-040B",
    "EPOCH": "2024-09-25T09:34:58.813248",
    "MEAN_MOTION": 1.00166242,
    "ECCENTRICITY": 0.0009177,
    "INCLINATION": 11.0816,
    "RA_OF_ASC_NODE": 34.7862,
    "ARG_OF_PERICENTER": 153.138,
    "MEAN_ANOMALY": 26.0086,
    "EPHEMERIS_TYPE": 0,
    "CLASSIFICATION_TYPE": "U",
    "NORAD_CAT_ID": 23949,
    "ELEMENT_SET_NO": 999,
    "REV_AT_EPOCH": 10336,
    "BSTAR": 0,
    "MEAN_MOTION_DOT": -5.0e-8,
    "MEAN_MOTION_DDOT": 0
},{
    "OBJECT_NAME": "UFO 7 (USA 127)",
    "OBJECT_ID": "1996-042A",
    "EPOCH": "2024-09-25T07:10:19.539264",
    "MEAN_MOTION": 1.00375151,
    "ECCENTRICITY": 0.0007884,
    "INCLINATION": 10.5174,
    "RA_OF_ASC_NODE": 20.1911,
    "ARG_OF_PERICENTER": 116.0407,
    "MEAN_ANOMALY": 256.0394,
    "EPHEMERIS_TYPE": 0,
    "CLASSIFICATION_TYPE": "U",
    "NORAD_CAT_ID": 23967,
    "ELEMENT_SET_NO": 999,
    "REV_AT_EPOCH": 10317,
    "BSTAR": 0,
    "MEAN_MOTION_DOT": -2.67e-6,
    "MEAN_MOTION_DDOT": 0
},{
    "OBJECT_NAME": "ITALSAT 2",
    "OBJECT_ID": "1996-044A",
    "EPOCH": "2024-09-25T12:10:34.849920",
    "MEAN_MOTION": 1.00782853,
    "ECCENTRICITY": 0.0027702,
    "INCLINATION": 13.4733,
    "RA_OF_ASC_NODE": 11.4132,
    "ARG_OF_PERICENTER": 140.2506,
    "MEAN_ANOMALY": 241.4968,
    "EPHEMERIS_TYPE": 0,
    "CLASSIFICATION_TYPE": "U",
    "NORAD_CAT_ID": 24208,
    "ELEMENT_SET_NO": 999,
    "REV_AT_EPOCH": 10325,
    "BSTAR": 0,
    "MEAN_MOTION_DOT": 7.3e-7,
    "MEAN_MOTION_DDOT": 0
},{
    "OBJECT_NAME": "ZHONGXING-7",
    "OBJECT_ID": "1996-048A",
    "EPOCH": "2024-09-23T08:36:42.672672",
    "MEAN_MOTION": 1.06658727,
    "ECCENTRICITY": 0.3471758,
    "INCLINATION": 17.2199,
    "RA_OF_ASC_NODE": 205.6455,
    "ARG_OF_PERICENTER": 240.4441,
    "MEAN_ANOMALY": 341.3962,
    "EPHEMERIS_TYPE": 0,
    "CLASSIFICATION_TYPE": "U",
    "NORAD_CAT_ID": 24282,
    "ELEMENT_SET_NO": 999,
    "REV_AT_EPOCH": 11197,
    "BSTAR": 0,
    "MEAN_MOTION_DOT": -8.1e-7,
    "MEAN_MOTION_DDOT": 0
},{
    "OBJECT_NAME": "INMARSAT 3-F2",
    "OBJECT_ID": "1996-053A",
    "EPOCH": "2024-09-25T00:04:42.621312",
    "MEAN_MOTION": 0.99976399,
    "ECCENTRICITY": 0.0006945,
    "INCLINATION": 8.4143,
    "RA_OF_ASC_NODE": 60.0237,
    "ARG_OF_PERICENTER": 111.1966,
    "MEAN_ANOMALY": 261.7276,
    "EPHEMERIS_TYPE": 0,
    "CLASSIFICATION_TYPE": "U",
    "NORAD_CAT_ID": 24307,
    "ELEMENT_SET_NO": 999,
    "REV_AT_EPOCH": 10262,
    "BSTAR": 0,
    "MEAN_MOTION_DOT": 2.0e-7,
    "MEAN_MOTION_DDOT": 0
},{
    "OBJECT_NAME": "ECHOSTAR 2",
    "OBJECT_ID": "1996-055A",
    "EPOCH": "2024-09-25T09:56:44.274048",
    "MEAN_MOTION": 1.00194856,
    "ECCENTRICITY": 0.0014139,
    "INCLINATION": 10.9557,
    "RA_OF_ASC_NODE": 36.2425,
    "ARG_OF_PERICENTER": 85.2886,
    "MEAN_ANOMALY": 292.5534,
    "EPHEMERIS_TYPE": 0,
    "CLASSIFICATION_TYPE": "U",
    "NORAD_CAT_ID": 24313,
    "ELEMENT_SET_NO": 999,
    "REV_AT_EPOCH": 10270,
    "BSTAR": 0,
    "MEAN_MOTION_DOT": -1.37e-6,
    "MEAN_MOTION_DDOT": 0
},{
    "OBJECT_NAME": "AMC-1 (GE-1)",
    "OBJECT_ID": "1996-054A",
    "EPOCH": "2024-09-25T17:49:45.431616",
    "MEAN_MOTION": 0.99510918,
    "ECCENTRICITY": 0.0009146,
    "INCLINATION": 7.6089,
    "RA_OF_ASC_NODE": 65.5656,
    "ARG_OF_PERICENTER": 181.7842,
    "MEAN_ANOMALY": 20.5298,
    "EPHEMERIS_TYPE": 0,
    "CLASSIFICATION_TYPE": "U",
    "NORAD_CAT_ID": 24315,
    "ELEMENT_SET_NO": 999,
    "REV_AT_EPOCH": 10267,
    "BSTAR": 0,
    "MEAN_MOTION_DOT": -1.74e-6,
    "MEAN_MOTION_DDOT": 0
},{
    "OBJECT_NAME": "EXPRESS 2",
    "OBJECT_ID": "1996-058A",
    "EPOCH": "2024-09-24T18:16:38.223264",
    "MEAN_MOTION": 1.00230686,
    "ECCENTRICITY": 0.0005632,
    "INCLINATION": 14.6264,
    "RA_OF_ASC_NODE": 359.1335,
    "ARG_OF_PERICENTER": 1.978,
    "MEAN_ANOMALY": 12.4442,
    "EPHEMERIS_TYPE": 0,
    "CLASSIFICATION_TYPE": "U",
    "NORAD_CAT_ID": 24435,
    "ELEMENT_SET_NO": 999,
    "REV_AT_EPOCH": 10249,
    "BSTAR": 0,
    "MEAN_MOTION_DOT": -2.92e-6,
    "MEAN_MOTION_DDOT": 0
},{
    "OBJECT_NAME": "SL-12 R/B(2)",
    "OBJECT_ID": "1996-058D",
    "EPOCH": "2024-09-25T16:34:41.553408",
    "MEAN_MOTION": 1.00348345,
    "ECCENTRICITY": 0.0010359,
    "INCLINATION": 14.54,
    "RA_OF_ASC_NODE": 355.8068,
    "ARG_OF_PERICENTER": 126.4094,
    "MEAN_ANOMALY": 223.8147,
    "EPHEMERIS_TYPE": 0,
    "CLASSIFICATION_TYPE": "U",
    "NORAD_CAT_ID": 24438,
    "ELEMENT_SET_NO": 999,
    "REV_AT_EPOCH": 10254,
    "BSTAR": 0,
    "MEAN_MOTION_DOT": -2.9e-6,
    "MEAN_MOTION_DDOT": 0
},{
    "OBJECT_NAME": "AFRICASAT-2 (MEASAT-2)",
    "OBJECT_ID": "1996-063B",
    "EPOCH": "2024-09-25T15:22:42.744864",
    "MEAN_MOTION": 0.99662424,
    "ECCENTRICITY": 0.0006833,
    "INCLINATION": 11.3081,
    "RA_OF_ASC_NODE": 33.4824,
    "ARG_OF_PERICENTER": 162.5105,
    "MEAN_ANOMALY": 203.5426,
    "EPHEMERIS_TYPE": 0,
    "CLASSIFICATION_TYPE": "U",
    "NORAD_CAT_ID": 24653,
    "ELEMENT_SET_NO": 999,
    "REV_AT_EPOCH": 10190,
    "BSTAR": 0,
    "MEAN_MOTION_DOT": -2.19e-6,
    "MEAN_MOTION_DDOT": 0
},{
    "OBJECT_NAME": "INMARSAT 3-F3",
    "OBJECT_ID": "1996-070A",
    "EPOCH": "2024-09-25T07:21:27.614304",
    "MEAN_MOTION": 1.00000399,
    "ECCENTRICITY": 0.0007513,
    "INCLINATION": 8.942,
    "RA_OF_ASC_NODE": 55.3557,
    "ARG_OF_PERICENTER": 143.251,
    "MEAN_ANOMALY": 235.199,
    "EPHEMERIS_TYPE": 0,
    "CLASSIFICATION_TYPE": "U",
    "NORAD_CAT_ID": 24674,
    "ELEMENT_SET_NO": 999,
    "REV_AT_EPOCH": 10161,
    "BSTAR": 0,
    "MEAN_MOTION_DOT": -2.93e-6,
    "MEAN_MOTION_DDOT": 0
},{
    "OBJECT_NAME": "ATLAS 2A CENTAUR R/B",
    "OBJECT_ID": "1996-070B",
    "EPOCH": "2024-09-24T13:06:12.564000",
    "MEAN_MOTION": 2.22626151,
    "ECCENTRICITY": 0.7010427,
    "INCLINATION": 22.9645,
    "RA_OF_ASC_NODE": 347.1174,
    "ARG_OF_PERICENTER": 6.4038,
    "MEAN_ANOMALY": 2.431,
    "EPHEMERIS_TYPE": 0,
    "CLASSIFICATION_TYPE": "U",
    "NORAD_CAT_ID": 24675,
    "ELEMENT_SET_NO": 999,
    "REV_AT_EPOCH": 22592,
    "BSTAR": 0,
    "MEAN_MOTION_DOT": -2.79e-6,
    "MEAN_MOTION_DDOT": 0
},{
    "OBJECT_NAME": "ISO DEB",
    "OBJECT_ID": "1995-062C",
    "EPOCH": "2024-09-20T23:25:00.153408",
    "MEAN_MOTION": 1.00367097,
    "ECCENTRICITY": 0.819927,
    "INCLINATION": 0.5988,
    "RA_OF_ASC_NODE": 12.242,
    "ARG_OF_PERICENTER": 319.6249,
    "MEAN_ANOMALY": 28.1551,
    "EPHEMERIS_TYPE": 0,
    "CLASSIFICATION_TYPE": "U",
    "NORAD_CAT_ID": 24700,
    "ELEMENT_SET_NO": 999,
    "REV_AT_EPOCH": 3663,
    "BSTAR": 0,
    "MEAN_MOTION_DOT": -4.51e-6,
    "MEAN_MOTION_DDOT": 0
},{
    "OBJECT_NAME": "AMC-2 (GE-2)",
    "OBJECT_ID": "1997-002A",
    "EPOCH": "2024-09-25T15:12:37.907712",
    "MEAN_MOTION": 0.99467918,
    "ECCENTRICITY": 0.0007857,
    "INCLINATION": 9.5105,
    "RA_OF_ASC_NODE": 50.4766,
    "ARG_OF_PERICENTER": 130.2224,
    "MEAN_ANOMALY": 278.6533,
    "EPHEMERIS_TYPE": 0,
    "CLASSIFICATION_TYPE": "U",
    "NORAD_CAT_ID": 24713,
    "ELEMENT_SET_NO": 999,
    "REV_AT_EPOCH": 10116,
    "BSTAR": 0,
    "MEAN_MOTION_DOT": 8.1e-7,
    "MEAN_MOTION_DDOT": 0
},{
    "OBJECT_NAME": "IUS R/B(2)",
    "OBJECT_ID": "1997-008D",
    "EPOCH": "2024-09-25T01:51:11.353536",
    "MEAN_MOTION": 0.99503316,
    "ECCENTRICITY": 0.0026343,
    "INCLINATION": 14.3915,
    "RA_OF_ASC_NODE": 8.6309,
    "ARG_OF_PERICENTER": 176.7603,
    "MEAN_ANOMALY": 183.2679,
    "EPHEMERIS_TYPE": 0,
    "CLASSIFICATION_TYPE": "U",
    "NORAD_CAT_ID": 24740,
    "ELEMENT_SET_NO": 999,
    "REV_AT_EPOCH": 1952,
    "BSTAR": 0,
    "MEAN_MOTION_DOT": -2.74e-6,
    "MEAN_MOTION_DDOT": 0
},{
    "OBJECT_NAME": "COSMOS 2340",
    "OBJECT_ID": "1997-015A",
    "EPOCH": "2024-09-16T01:05:26.255328",
    "MEAN_MOTION": 2.00538697,
    "ECCENTRICITY": 0.6685749,
    "INCLINATION": 65.3037,
    "RA_OF_ASC_NODE": 205.1935,
    "ARG_OF_PERICENTER": 159.0361,
    "MEAN_ANOMALY": 252.392,
    "EPHEMERIS_TYPE": 0,
    "CLASSIFICATION_TYPE": "U",
    "NORAD_CAT_ID": 24761,
    "ELEMENT_SET_NO": 999,
    "REV_AT_EPOCH": 20102,
    "BSTAR": 0,
    "MEAN_MOTION_DOT": -8.33e-6,
    "MEAN_MOTION_DDOT": 0
},{
    "OBJECT_NAME": "SL-6 R/B(2)",
    "OBJECT_ID": "1997-015D",
    "EPOCH": "2024-09-24T10:24:58.343904",
    "MEAN_MOTION": 2.03165222,
    "ECCENTRICITY": 0.6265937,
    "INCLINATION": 65.5729,
    "RA_OF_ASC_NODE": 122.5865,
    "ARG_OF_PERICENTER": 145.798,
    "MEAN_ANOMALY": 278.1299,
    "EPHEMERIS_TYPE": 0,
    "CLASSIFICATION_TYPE": "U",
    "NORAD_CAT_ID": 24764,
    "ELEMENT_SET_NO": 999,
    "REV_AT_EPOCH": 20371,
    "BSTAR": 0,
    "MEAN_MOTION_DOT": -6.63e-6,
    "MEAN_MOTION_DDOT": 0
},{
    "OBJECT_NAME": "THAICOM 3",
    "OBJECT_ID": "1997-016A",
    "EPOCH": "2024-09-24T23:09:49.041216",
    "MEAN_MOTION": 0.987519,
    "ECCENTRICITY": 0.0087793,
    "INCLINATION": 12.1537,
    "RA_OF_ASC_NODE": 29.6261,
    "ARG_OF_PERICENTER": 38.4095,
    "MEAN_ANOMALY": 324.2808,
    "EPHEMERIS_TYPE": 0,
    "CLASSIFICATION_TYPE": "U",
    "NORAD_CAT_ID": 24768,
    "ELEMENT_SET_NO": 999,
    "REV_AT_EPOCH": 9972,
    "BSTAR": 0,
    "MEAN_MOTION_DOT": -2.4e-7,
    "MEAN_MOTION_DDOT": 0
}]